# From MPEC 2023-W26
81P/Wild,e,3.2366,136.0948,41.6019,3.453273,0.1535881,0.53723737,52.2843,11/21.0/2023,2000,g  7.0,6.0
# From MPC133426
82P/Gehrels,e,1.1291,239.2430,226.3964,4.132555,0.1173211,0.12233248,231.9840,11/21.0/2023,2000,g 15.0,4.0
# From NK 932
83D/Russell,e,17.8249,226.3107,334.4411,3.843987,0.1307769,0.44149096,119.3023,11/21.0/2023,2000,g  9.0,4.0
# From MPEC 2020-FB5
84P/Giclas,e,7.5509,108.1704,281.6298,3.550013,0.1473531,0.51609284,186.2872,11/21.0/2023,2000,g  9.5,8.0
# From unp
85D/Boethin,e,4.1741,65.2848,333.0602,5.043411,0.0870197,0.77635078,105.1876,11/21.0/2023,2000,g  6.5,8.0
# From MPEC 2022-YB4
86P/Wild,e,15.4936,72.1910,180.1268,3.614971,0.1433993,0.37191229,93.2447,11/21.0/2023,2000,g 11.0,6.0
# From MPEC 2020-SI8
87P/Bus,e,2.7947,187.6922,49.7906,4.224769,0.1135010,0.25598529,145.0314,11/21.0/2023,2000,g  7.2,10.0
# From MPEC 2023-J29
88P/Howell,e,4.3819,56.6652,235.9301,3.106899,0.1799755,0.56331645,207.2151,11/21.0/2023,2000,g 11.0,6.0
# From MPEC 2023-J29
89P/Russell,e,12.0722,41.3465,250.4014,3.752321,0.1355983,0.40787974,342.8324,11/21.0/2023,2000,g 11.5,6.0
# From MPEC 2022-K19
90P/Gehrels,e,9.6501,13.2194,29.0895,6.051599,0.0662062,0.51117431,155.0501,11/21.0/2023,2000,g  8.5,6.0
# From MPEC 2023-VM5
91P/Russell,e,15.1230,244.2065,358.2639,3.898410,0.1280480,0.33550252,141.4324,11/21.0/2023,2000,g  7.5,6.0
# From MPEC 2014-J58
92P/Sanguin,e,19.4987,181.3788,163.8029,5.342712,0.0798108,0.66068099,253.7226,11/21.0/2023,2000,g 12.0,6.0
# From NK 2707
93P/Lovas,e,12.2042,339.5958,74.9174,4.377930,0.1075972,0.61394284,263.8304,11/21.0/2023,2000,g  9.0,4.0
# From MPEC 2023_O39
94P/Russell,e,6.1878,70.8521,92.4092,3.510453,0.1498509,0.36561465,27.5652,11/21.0/2023,2000,g  9.0,6.0
# From MPC 75717
95P/Chiron,e,6.9221,209.2000,339.4402,13.71218,0.0194108,0.37651371,198.3414,11/21.0/2023,2000,g  6.5,2.0
# From MPEC 2023-N01
96P/Machholz,e,57.5282,93.9534,14.7445,3.030703,0.1868052,0.96160642,54.9037,11/21.0/2023,2000,g 13.0,4.8
# From MPC106348
96P-B/Machholz,e,57.5058,14.7361,93.9476,3.030208,0.1868510,0.96160568,54.9170,11/21.0/2023,2000,g 13.0,4.8
# From MPC103849
96P-C/Machholz,e,58.5311,94.3495,15.5380,3.011920,0.1885553,0.95889850,359.8715,07/14.0/2012,2000,g  9.0,4.0
# From MPEC 2022-C56
97P/Metcalf-Brewington,e,17.9500,184.1180,230.0306,4.765141,0.0947525,0.46031391,60.9351,11/21.0/2023,2000,g  5.5,6.0
# From MPEC 2021-W31
98P/Takamizawa,e,10.5667,114.6514,157.7501,3.791025,0.1335270,0.56240707,140.3131,11/21.0/2023,2000,g  9.0,8.0
# From MPEC 2023-VM5
99P/Kowal,e,4.3396,28.0980,174.7169,6.098168,0.0654493,0.22853978,38.5774,11/21.0/2023,2000,g  4.5,6.0
# From MPEC 2023-OA6
100P/Hartley,e,25.5670,37.6867,181.9616,3.430581,0.1551145,0.41177694,72.4612,11/21.0/2023,2000,g  9.0,8.0
# From MPEC 2022-K19
101P/Chernykh,e,5.0497,116.2476,277.7768,5.812145,0.0703395,0.59635044,99.0060,11/21.0/2023,2000,g 10.0,4.8
# From MPC105241
101P-B/Chernykh,e,5.0500,278.5668,115.4600,5.827619,0.0700595,0.59656172,97.3660,11/21.0/2023,2000,g  9.0,4.0
# From MPEC 2022-C56
102P/Shoemaker,e,25.8758,339.4118,20.6513,3.817917,0.1321187,0.45679329,136.4036,11/21.0/2023,2000,g  6.5,8.0
# From MPEC 2023-W26
103P/Hartley,e,13.6107,219.7497,181.3008,3.475157,0.1521397,0.69380117,6.0078,11/21.0/2023,2000,g  8.5,8.0
# From MPEC 2023-G31
104P/Kowal,e,5.7034,207.2093,227.2511,3.208590,0.1714876,0.66582202,116.2973,11/21.0/2023,2000,g 16.0,4.0
# From MPC109147
105P/Singer Brewster,e,9.1679,192.3649,46.4119,3.470833,0.1524240,0.40885290,294.6258,11/21.0/2023,2000,g 11.5,6.0
# From MPEC 2023-UR6
106P/Schuster,e,19.5407,48.8618,353.7562,3.766584,0.1348288,0.59396384,111.0959,11/21.0/2023,2000,g 14.0,4.8
# From MPEC 2015-M77
107P/Wilson-Harrington,e,2.7987,266.7596,95.4792,2.625012,0.2317432,0.63152026,105.0657,11/21.0/2023,2000,g  9.0,4.0
# From MPEC 2022-P82
108P/Ciffreo,e,11.4363,50.2973,354.4863,3.742047,0.1361571,0.55612055,109.1492,11/21.0/2023,2000,g  8.0,12.0
# From  105, 420
109P/Swift-Tuttle,e,13.7381,139.3472,153.0080,26.20194,0.0073486,0.96208221,83.0773,11/21.0/2023,2000,g  4.0,6.0
# From MPEC 2023-KD6
110P/Hartley,e,11.7063,287.4985,167.4848,3.603885,0.1440614,0.31892145,109.9782,11/21.0/2023,2000,g  1.0,12.0
# From MPC 75718
111P/Helin-Roman-Crockett,e,4.2258,89.8163,1.1394,4.151768,0.1165077,0.10706696,103.3023,11/21.0/2023,2000,g  5.0,8.0
# From MPEC 2021-S45
112P/Urata-Niijima,e,24.2114,31.8368,21.4870,3.523850,0.1489972,0.59080022,205.7076,11/21.0/2023,2000,g 14.0,6.0
# From MPEC 2023-VM5
113P/Spitaler,e,5.2882,306.6661,115.6015,3.693619,0.1388436,0.41995769,74.6072,11/21.0/2023,2000,g 13.5,4.0
# From MPEC 2023-A50
114P/Wiseman-Skiff,e,18.2980,271.0230,172.7566,3.542020,0.1478522,0.55580940,207.8642,11/21.0/2023,2000,g 11.5,6.0
# From MPEC 2023-J29
115P/Maury,e,11.6771,176.0118,120.9864,4.272263,0.1116136,0.51763647,135.1057,11/21.0/2023,2000,g 10.5,6.0
# From MPEC 2023-VM5
116P/Wild,e,3.6034,20.9745,173.2216,3.488063,0.1512961,0.37030923,74.4831,11/21.0/2023,2000,g  2.5,10.0
# From MPEC 2023-W26
117P/Helin-Roman-Alu,e,8.7049,58.8181,223.3105,4.089721,0.1191691,0.25602544,59.5372,11/21.0/2023,2000,g  2.5,8.0
# From MPEC 2023-W26
118P/Shoemaker-Levy,e,10.0906,142.0911,314.8671,3.347824,0.1609015,0.45365908,58.1799,11/21.0/2023,2000,g 12.0,4.0
# From MPEC 2023-M14
119P/Parker-Hartley,e,7.3924,104.5633,322.1421,3.806673,0.1327045,0.38838765,61.8104,11/21.0/2023,2000,g 12.5,4.0
# From MPEC 2022-CN4
120P/Mueller,e,8.4882,358.7245,36.6864,3.967296,0.1247275,0.37481178,115.6503,11/21.0/2023,2000,g 12.0,4.0
# From MPEC 2023-W26
121P/Shoemaker-Holt,e,20.1635,94.1135,11.7030,4.585022,0.1003904,0.18640317,14.5534,11/21.0/2023,2000,g  6.5,8.0
# From MPC 75718
122P/de Vico,e,85.8636,79.7127,12.9904,17.62654,0.0133184,0.96242076,137.0972,11/21.0/2023,2000,g  7.5,5.2
# From MPEC 2021-F20
123P/West-Hartley,e,15.2791,45.9068,104.0353,3.881184,0.1289014,0.44426754,226.3477,11/21.0/2023,2000,g 12.2,4.0
# From MPEC 2023-T65
124P/Mrkos,e,31.4805,0.0895,185.2073,3.371831,0.1591862,0.48718398,209.4495,11/21.0/2023,2000,g 13.5,2.8
# From MPEC 2022-YB4
125P/Spacewatch,e,9.9850,153.1521,87.1433,3.129133,0.1780607,0.51211213,340.8937,11/21.0/2023,2000,g 13.0,6.0
# From MPEC 2023-W26
126P/IRAS,e,45.8715,357.8675,356.5887,5.636715,0.0736487,0.69654874,10.2142,11/21.0/2023,2000,g  6.0,8.0
# From MPEC 2023-D41
127P/Holt-Olmstead,e,14.3010,13.6056,6.2921,3.452484,0.1536408,0.35936924,71.8395,11/21.0/2023,2000,g 11.0,6.0
# From MPC 89014
128P/Shoemaker-Holt,e,4.3704,214.3427,210.3250,4.486207,0.1037254,0.32228895,259.5654,11/21.0/2023,2000,g  8.5,4.0
# From MPEC 2023-M14
129P/Shoemaker-Levy,e,3.4424,184.8608,307.4858,4.290815,0.1108905,0.08541531,39.4326,11/21.0/2023,2000,g 11.0,4.0
# From MPEC 2023-M14
130P/McNaught-Hughes,e,6.0636,70.1785,246.1230,3.381790,0.1584835,0.46093942,336.8820,11/21.0/2023,2000,g 10.0,6.0
# From MPC102101
131P/Mueller,e,7.3608,214.1788,179.0971,3.677460,0.1397598,0.34491265,245.7857,11/21.0/2023,2000,g 11.0,4.0
# From MPEC 2022-TD3
132P/Helin-Roman-Alu,e,5.3823,174.0328,216.3996,3.889849,0.1284710,0.56466420,94.7786,11/21.0/2023,2000,g 11.0,6.0
# From MPC 94676
133P/Elst-Pizarro,e,1.3897,160.1033,131.9175,3.164857,0.1750544,0.15614468,330.0077,11/21.0/2023,2000,g 15.4,2.0
# From MPC 89012
134P/Kowal-Vavrova,e,4.3349,202.0116,18.8034,6.266570,0.0628289,0.58501562,218.9391,11/21.0/2023,2000,g 11.5,4.0
# From MPEC 2022-OB6
135P/Shoemaker-Levy,e,6.0637,213.0209,22.3765,3.800156,0.1330461,0.29438623,78.8461,11/21.0/2023,2000,g  7.0,8.0
# From MPEC 2022-K19
136P/Mueller,e,9.4272,137.4984,225.1306,4.187025,0.1150392,0.29333519,312.9352,11/21.0/2023,2000,g 11.0,4.0
# From MPEC 2023-J29
137P/Shoemaker-Levy,e,4.8600,232.9285,141.2063,4.522045,0.1024948,0.57370870,184.6587,11/21.0/2023,2000,g 11.0,4.0
# From MPEC 2016-U66
138P/Shoemaker-Levy,e,10.0948,309.3013,95.6038,3.619283,0.1431431,0.53159776,237.7406,11/21.0/2023,2000,g 15.0,6.0
# From MPEC 2020-HN5
139P/Vaisala-Oterma,e,2.3371,242.1791,165.8108,4.516712,0.1026764,0.24827505,222.5439,11/21.0/2023,2000,g  9.5,4.0
# From MPEC 2015-E14
140P/Bowell-Skiff,e,3.8134,343.2917,172.4694,6.406289,0.0607847,0.69583627,184.6046,11/21.0/2023,2000,g 11.5,6.0
# From MPEC 2022-K19
141P/Machholz,e,13.9541,241.8116,153.5962,3.057563,0.1843491,0.73611106,197.0873,11/21.0/2023,2000,g 12.0,12.0
# From MPEC 2015-KD9
141P-A/Machholz,e,13.9448,153.5658,241.8560,3.057699,0.1843368,0.73610513,197.0414,11/21.0/2023,2000,g 12.0,12.0
# From MPC 24216
141P-B/Machholz,e,13.9887,153.6415,241.7453,3.056092,0.1844821,0.73586272,198.3840,11/21.0/2023,2000,g  9.0,4.0
# From MPC 37026
141P-D/Machholz,e,13.8369,153.2929,242.1036,3.066141,0.1835760,0.73706126,193.0838,11/21.0/2023,2000,g  9.0,4.0
# From MPEC 2015-R12
141P-E/Machholz,e,12.8152,246.1856,149.2667,3.012914,0.1884620,0.75023267,359.9529,09/19.0/1994,2000,g  9.0,4.0
# From MPEC 2015-R12
141P-F/Machholz,e,12.7898,246.1881,149.2374,3.010224,0.1887147,0.75000946,359.9630,09/19.0/1994,2000,g  9.0,4.0
# From MPEC 2015-R12
141P-G/Machholz,e,12.8259,246.3146,149.0784,3.005818,0.1891298,0.74964304,359.9802,09/19.0/1994,2000,g  9.0,4.0
# From MPC 95735
141P-H/Machholz,e,12.8431,246.0900,149.4500,3.008012,0.1889230,0.74682218,359.9270,08/24.0/2015,2000,g 18.5,4.0
# From MPEC 2022-SU8
141P-I/Machholz,e,13.9446,153.5201,241.8663,3.048183,0.1852006,0.73533025,198.0779,11/21.0/2023,2000,g 17.5,4.0
# From MPEC 2021-Y10
142P/Ge-Wang,e,12.2505,175.9719,174.0310,5.001996,0.0881027,0.49679111,81.2669,11/21.0/2023,2000,g  8.5,6.0
# From MPEC 2023-W26
143P/Kowal-Mrkos,e,4.8333,244.3479,320.6385,4.258383,0.1121597,0.42028348,227.2854,11/21.0/2023,2000,g 13.5,2.0
# From MPEC 2023-W26
144P/Kushida,e,3.9318,242.9250,216.3203,3.832189,0.1313813,0.63497444,351.3594,11/21.0/2023,2000,g  8.5,8.0
# From MPC108598
145P/Shoemaker-Levy,e,11.2785,26.8183,10.2925,4.133943,0.1172620,0.54260239,265.8727,11/21.0/2023,2000,g 13.5,4.0
# From MPC100284
146P/Shoemaker-LINEAR,e,23.1172,53.4201,317.0151,4.027002,0.1219639,0.64747545,328.4755,11/21.0/2023,2000,g 15.0,4.0
